[{"OBJECT_NAME":"STARLINK-35064","OBJECT_ID":"2025-200M","EPOCH":"2026-03-09T17:06:40.437792","MEAN_MOTION":15.05638857,"ECCENTRICITY":9.683e-5,"INCLINATION":97.6022,"RA_OF_ASC_NODE":139.8093,"ARG_OF_PERICENTER":132.5439,"MEAN_ANOMALY":227.587,"EPHEMERIS_TYPE":0,"CLASSIFICATION_TYPE":"U","NORAD_CAT_ID":65531,"ELEMENT_SET_NO":999,"REV_AT_EPOCH":2913,"BSTAR":0.00027821109,"MEAN_MOTION_DOT":3.955e-5,"MEAN_MOTION_DDOT":0},{"OBJECT_NAME":"NOAA 17 DEB","OBJECT_ID":"2002-032W","EPOCH":"2026-03-09T23:34:50.358720","MEAN_MOTION":15.06684432,"ECCENTRICITY":0.0012716,"INCLINATION":98.7039,"RA_OF_ASC_NODE":76.0065,"ARG_OF_PERICENTER":104.6864,"MEAN_ANOMALY":255.577,"EPHEMERIS_TYPE":0,"CLASSIFICATION_TYPE":"U","NORAD_CAT_ID":48181,"ELEMENT_SET_NO":999,"REV_AT_EPOCH":26088,"BSTAR":0.0078736038,"MEAN_MOTION_DOT":0.00118919,"MEAN_MOTION_DDOT":0}]
